STARLINK-36344          
1 67710U 26025T   26056.25002315  .00043155  00000+0  22531-3 0  9996
2 67710  97.2831 167.2479 0001605  77.4269 304.9458 15.80777536  4013
STARLINK-36687          
1 67711U 26025U   26056.25002315  .00101416  00000+0  52505-3 0  9996
2 67711  97.2830 167.2526 0001692 110.6164 283.0995 15.80774322  4019
STARLINK-36705          
1 67712U 26025V   26056.25002315 -.01876824  00000+0 -11658-1 0  9994
2 67712  97.2772 167.2603 0001830  77.2411 343.1093 15.79921811  3918
STARLINK-36708          
1 67713U 26025W   26056.25002315 -.00013439  00000+0 -69168-4 0  9991
2 67713  97.2783 167.2763 0001503  82.7951  11.6093 15.80928288  3919
STARLINK-36702          
1 67714U 26025X   26056.25002315 -.00152284  00000+0 -80517-3 0  9994
2 67714  97.2797 167.2716 0001477 100.1349 343.9080 15.80897638  3640
STARLINK-36718          
1 67715U 26025Y   26056.25002315 -.00029146  00000+0 -15176-3 0  9994
2 67715  97.2766 167.2875 0001621  66.8243  52.3210 15.80839450  3852
STARLINK-36715          
1 67716U 26025Z   26056.25002315 -.00065869  00000+0 -34549-3 0  9992
2 67716  97.2797 167.2820 0001451  67.0598  40.3642 15.80831022  3914
STARLINK-36385          
1 67717U 26025AA  26056.25002315 -.00050653  00000+0 -26483-3 0  9996
2 67717  97.2802 167.2674 0001015  88.2700 343.5758 15.80850064  3918
CZ-2F DEB               
1 67718U 26024E   26056.27280040  .00195129  00000+0  37133-2 0  9990
2 67718  50.3164  79.4864 0249538 231.2022 126.6413 15.19985566  2742
CZ-2F DEB               
1 67719U 26024F   26056.30463525  .00139219  00000+0  34696-2 0  9995
2 67719  49.7912  81.3625 0324795 221.8422 135.7276 14.99744978  2386
CZ-2F DEB               
1 67720U 26024G   26056.27020495  .00140506  00000+0  35963-2 0  9997
2 67720  49.8308  81.9053 0335422 218.0618 139.6195 14.97084074  2692
STARLINK-36772          
1 67721U 26026A   26042.75317130 -.00000725  22934-5  00000+0 0  9999
2 67721  97.2800  95.5280 0003400 259.0800  81.2200 16.07750770    15
