CCSDS_OMM_VERS = 2.0
CREATION_DATE  = 
ORIGINATOR     = 

OBJECT_NAME    = STARLINK-36344
OBJECT_ID      = 2026-025T
CENTER_NAME    = EARTH
REF_FRAME      = TEME
TIME_SYSTEM    = UTC
MEAN_ELEMENT_THEORY = SGP/SGP4

EPOCH          = 2026-02-25T06:00:02.000160
MEAN_MOTION    = 15.80777536
ECCENTRICITY   = .00016058
INCLINATION    = 97.2831
RA_OF_ASC_NODE = 167.2479
ARG_OF_PERICENTER = 77.4269
MEAN_ANOMALY   = 304.9458

EPHEMERIS_TYPE = 0
CLASSIFICATION_TYPE = U
NORAD_CAT_ID   = 67710
ELEMENT_SET_NO = 999
REV_AT_EPOCH   = 401
BSTAR          = .22531302E-3
MEAN_MOTION_DOT = .43155E-3
MEAN_MOTION_DDOT = 0

CCSDS_OMM_VERS = 2.0
CREATION_DATE  = 
ORIGINATOR     = 

OBJECT_NAME    = STARLINK-36687
OBJECT_ID      = 2026-025U
CENTER_NAME    = EARTH
REF_FRAME      = TEME
TIME_SYSTEM    = UTC
MEAN_ELEMENT_THEORY = SGP/SGP4

EPOCH          = 2026-02-25T06:00:02.000160
MEAN_MOTION    = 15.80774322
ECCENTRICITY   = .00016921
INCLINATION    = 97.2830
RA_OF_ASC_NODE = 167.2526
ARG_OF_PERICENTER = 110.6164
MEAN_ANOMALY   = 283.0995

EPHEMERIS_TYPE = 0
CLASSIFICATION_TYPE = U
NORAD_CAT_ID   = 67711
ELEMENT_SET_NO = 999
REV_AT_EPOCH   = 401
BSTAR          = .5250544E-3
MEAN_MOTION_DOT = .101416E-2
MEAN_MOTION_DDOT = 0

CCSDS_OMM_VERS = 2.0
CREATION_DATE  = 
ORIGINATOR     = 

OBJECT_NAME    = STARLINK-36705
OBJECT_ID      = 2026-025V
CENTER_NAME    = EARTH
REF_FRAME      = TEME
TIME_SYSTEM    = UTC
MEAN_ELEMENT_THEORY = SGP/SGP4

EPOCH          = 2026-02-25T06:00:02.000160
MEAN_MOTION    = 15.79921811
ECCENTRICITY   = .00018301
INCLINATION    = 97.2772
RA_OF_ASC_NODE = 167.2603
ARG_OF_PERICENTER = 77.2411
MEAN_ANOMALY   = 343.1093

EPHEMERIS_TYPE = 0
CLASSIFICATION_TYPE = U
NORAD_CAT_ID   = 67712
ELEMENT_SET_NO = 999
REV_AT_EPOCH   = 391
BSTAR          = -.11657724E-1
MEAN_MOTION_DOT = -.1876824E-1
MEAN_MOTION_DDOT = 0

CCSDS_OMM_VERS = 2.0
CREATION_DATE  = 
ORIGINATOR     = 

OBJECT_NAME    = STARLINK-36708
OBJECT_ID      = 2026-025W
CENTER_NAME    = EARTH
REF_FRAME      = TEME
TIME_SYSTEM    = UTC
MEAN_ELEMENT_THEORY = SGP/SGP4

EPOCH          = 2026-02-25T06:00:02.000160
MEAN_MOTION    = 15.80928288
ECCENTRICITY   = .00015038
INCLINATION    = 97.2783
RA_OF_ASC_NODE = 167.2763
ARG_OF_PERICENTER = 82.7951
MEAN_ANOMALY   = 11.6093

EPHEMERIS_TYPE = 0
CLASSIFICATION_TYPE = U
NORAD_CAT_ID   = 67713
ELEMENT_SET_NO = 999
REV_AT_EPOCH   = 391
BSTAR          = -.6916765E-4
MEAN_MOTION_DOT = -.13439E-3
MEAN_MOTION_DDOT = 0

CCSDS_OMM_VERS = 2.0
CREATION_DATE  = 
ORIGINATOR     = 

OBJECT_NAME    = STARLINK-36702
OBJECT_ID      = 2026-025X
CENTER_NAME    = EARTH
REF_FRAME      = TEME
TIME_SYSTEM    = UTC
MEAN_ELEMENT_THEORY = SGP/SGP4

EPOCH          = 2026-02-25T06:00:02.000160
MEAN_MOTION    = 15.80897638
ECCENTRICITY   = .00014771
INCLINATION    = 97.2797
RA_OF_ASC_NODE = 167.2716
ARG_OF_PERICENTER = 100.1349
MEAN_ANOMALY   = 343.9080

EPHEMERIS_TYPE = 0
CLASSIFICATION_TYPE = U
NORAD_CAT_ID   = 67714
ELEMENT_SET_NO = 999
REV_AT_EPOCH   = 364
BSTAR          = -.80516943E-3
MEAN_MOTION_DOT = -.152284E-2
MEAN_MOTION_DDOT = 0

CCSDS_OMM_VERS = 2.0
CREATION_DATE  = 
ORIGINATOR     = 

OBJECT_NAME    = STARLINK-36718
OBJECT_ID      = 2026-025Y
CENTER_NAME    = EARTH
REF_FRAME      = TEME
TIME_SYSTEM    = UTC
MEAN_ELEMENT_THEORY = SGP/SGP4

EPOCH          = 2026-02-25T06:00:02.000160
MEAN_MOTION    = 15.80839450
ECCENTRICITY   = .00016214
INCLINATION    = 97.2766
RA_OF_ASC_NODE = 167.2875
ARG_OF_PERICENTER = 66.8243
MEAN_ANOMALY   = 52.3210

EPHEMERIS_TYPE = 0
CLASSIFICATION_TYPE = U
NORAD_CAT_ID   = 67715
ELEMENT_SET_NO = 999
REV_AT_EPOCH   = 385
BSTAR          = -.15175995E-3
MEAN_MOTION_DOT = -.29146E-3
MEAN_MOTION_DDOT = 0

CCSDS_OMM_VERS = 2.0
CREATION_DATE  = 
ORIGINATOR     = 

OBJECT_NAME    = STARLINK-36715
OBJECT_ID      = 2026-025Z
CENTER_NAME    = EARTH
REF_FRAME      = TEME
TIME_SYSTEM    = UTC
MEAN_ELEMENT_THEORY = SGP/SGP4

EPOCH          = 2026-02-25T06:00:02.000160
MEAN_MOTION    = 15.80831022
ECCENTRICITY   = .00014516
INCLINATION    = 97.2797
RA_OF_ASC_NODE = 167.2820
ARG_OF_PERICENTER = 67.0598
MEAN_ANOMALY   = 40.3642

EPHEMERIS_TYPE = 0
CLASSIFICATION_TYPE = U
NORAD_CAT_ID   = 67716
ELEMENT_SET_NO = 999
REV_AT_EPOCH   = 391
BSTAR          = -.34548872E-3
MEAN_MOTION_DOT = -.65869E-3
MEAN_MOTION_DDOT = 0

CCSDS_OMM_VERS = 2.0
CREATION_DATE  = 
ORIGINATOR     = 

OBJECT_NAME    = STARLINK-36385
OBJECT_ID      = 2026-025AA
CENTER_NAME    = EARTH
REF_FRAME      = TEME
TIME_SYSTEM    = UTC
MEAN_ELEMENT_THEORY = SGP/SGP4

EPOCH          = 2026-02-25T06:00:02.000160
MEAN_MOTION    = 15.80850064
ECCENTRICITY   = .00010158
INCLINATION    = 97.2802
RA_OF_ASC_NODE = 167.2674
ARG_OF_PERICENTER = 88.2700
MEAN_ANOMALY   = 343.5758

EPHEMERIS_TYPE = 0
CLASSIFICATION_TYPE = U
NORAD_CAT_ID   = 67717
ELEMENT_SET_NO = 999
REV_AT_EPOCH   = 391
BSTAR          = -.2648326E-3
MEAN_MOTION_DOT = -.50653E-3
MEAN_MOTION_DDOT = 0

CCSDS_OMM_VERS = 2.0
CREATION_DATE  = 
ORIGINATOR     = 

OBJECT_NAME    = CZ-2F DEB
OBJECT_ID      = 2026-024E
CENTER_NAME    = EARTH
REF_FRAME      = TEME
TIME_SYSTEM    = UTC
MEAN_ELEMENT_THEORY = SGP/SGP4

EPOCH          = 2026-02-25T06:32:49.954560
MEAN_MOTION    = 15.19985566
ECCENTRICITY   = .02495384
INCLINATION    = 50.3164
RA_OF_ASC_NODE = 79.4864
ARG_OF_PERICENTER = 231.2022
MEAN_ANOMALY   = 126.6413

EPHEMERIS_TYPE = 0
CLASSIFICATION_TYPE = U
NORAD_CAT_ID   = 67718
ELEMENT_SET_NO = 999
REV_AT_EPOCH   = 274
BSTAR          = .37133256E-2
MEAN_MOTION_DOT = .195129E-2
MEAN_MOTION_DDOT = 0

CCSDS_OMM_VERS = 2.0
CREATION_DATE  = 
ORIGINATOR     = 

OBJECT_NAME    = CZ-2F DEB
OBJECT_ID      = 2026-024F
CENTER_NAME    = EARTH
REF_FRAME      = TEME
TIME_SYSTEM    = UTC
MEAN_ELEMENT_THEORY = SGP/SGP4

EPOCH          = 2026-02-25T07:18:40.485600
MEAN_MOTION    = 14.99744978
ECCENTRICITY   = .03247951
INCLINATION    = 49.7912
RA_OF_ASC_NODE = 81.3625
ARG_OF_PERICENTER = 221.8422
MEAN_ANOMALY   = 135.7276

EPHEMERIS_TYPE = 0
CLASSIFICATION_TYPE = U
NORAD_CAT_ID   = 67719
ELEMENT_SET_NO = 999
REV_AT_EPOCH   = 238
BSTAR          = .34696044E-2
MEAN_MOTION_DOT = .139219E-2
MEAN_MOTION_DDOT = 0

CCSDS_OMM_VERS = 2.0
CREATION_DATE  = 
ORIGINATOR     = 

OBJECT_NAME    = CZ-2F DEB
OBJECT_ID      = 2026-024G
CENTER_NAME    = EARTH
REF_FRAME      = TEME
TIME_SYSTEM    = UTC
MEAN_ELEMENT_THEORY = SGP/SGP4

EPOCH          = 2026-02-25T06:29:05.707680
MEAN_MOTION    = 14.97084074
ECCENTRICITY   = .0335422
INCLINATION    = 49.8308
RA_OF_ASC_NODE = 81.9053
ARG_OF_PERICENTER = 218.0618
MEAN_ANOMALY   = 139.6195

EPHEMERIS_TYPE = 0
CLASSIFICATION_TYPE = U
NORAD_CAT_ID   = 67720
ELEMENT_SET_NO = 999
REV_AT_EPOCH   = 269
BSTAR          = .35962843E-2
MEAN_MOTION_DOT = .140506E-2
MEAN_MOTION_DDOT = 0

CCSDS_OMM_VERS = 2.0
CREATION_DATE  = 
ORIGINATOR     = 

OBJECT_NAME    = STARLINK-36772
OBJECT_ID      = 2026-026A
CENTER_NAME    = EARTH
REF_FRAME      = TEME
TIME_SYSTEM    = UTC
MEAN_ELEMENT_THEORY = SGP/SGP4

EPOCH          = 2026-02-11T18:04:34.000320
MEAN_MOTION    = 16.07750770
ECCENTRICITY   = .00034
INCLINATION    = 97.2800
RA_OF_ASC_NODE = 95.5280
ARG_OF_PERICENTER = 259.0800
MEAN_ANOMALY   = 81.2200

EPHEMERIS_TYPE = 0
CLASSIFICATION_TYPE = U
NORAD_CAT_ID   = 67721
ELEMENT_SET_NO = 999
REV_AT_EPOCH   = 1
BSTAR          = 0
MEAN_MOTION_DOT = -.725E-5
MEAN_MOTION_DDOT = .2293429E-5

